start=new Date('2022-10-03T00:00:00.000Z').valueOf();
sats=[{"OBJECT_TYPE":"PAYLOAD","NORAD_CAT_ID":"48112","COUNTRY_CODE":"US","RA_OF_ASC_NODE":"45.7271","OBJECT_NAME":"STARLINK-2449","APOAPSIS":"548.255","RCS_SIZE":"LARGE","OBJECT_ID":"2021-027W","REF_FRAME":"TEME","SITE":"AFETR","PERIOD":"95.592","TLE_LINE2":"2 48112  53.0556  45.7271 0001505  62.0771 298.0370 15.06400222 83352","DECAY_DATE":null,"MEAN_MOTION_DDOT":"0.0000000000000","MEAN_ELEMENT_THEORY":"SGP4","SEMIMAJOR_AXIS":"6925.348","TIME_SYSTEM":"UTC","LAUNCH_DATE":"2021-04-07","FILE":"3589751","ARG_OF_PERICENTER":"62.0771","TLE_LINE1":"1 48112U 21027W   22275.79725328  .00000865  00000-0  76940-4 0  9998","BSTAR":"0.00007694000000","ELEMENT_SET_NO":"999","EPHEMERIS_TYPE":"0","EPOCH":"2022-10-02T19:08:02.683392","ECCENTRICITY":"0.00015050","INCLINATION":"53.0556","MEAN_MOTION":"15.06400222","CLASSIFICATION_TYPE":"U","MEAN_MOTION_DOT":"0.00000865","GP_ID":"214048981","PERIAPSIS":"546.171","REV_AT_EPOCH":"8335","MEAN_ANOMALY":"298.0370","CENTER_NAME":"EARTH"},{"GP_ID":"214049218","MEAN_ANOMALY":"275.3960","CENTER_NAME":"EARTH","PERIAPSIS":"546.243","REV_AT_EPOCH":"8340","BSTAR":"0.00013422000000","EPOCH":"2022-10-02T17:35:48.830784","ELEMENT_SET_NO":"999","EPHEMERIS_TYPE":"0","FILE":"3589751","ARG_OF_PERICENTER":"84.7191","TLE_LINE1":"1 48113U 21027X   22275.73320406  .00001718  00000-0  13422-3 0  9994","MEAN_MOTION":"15.06396538","INCLINATION":"53.0564","CLASSIFICATION_TYPE":"U","MEAN_MOTION_DOT":"0.00001718","ECCENTRICITY":"0.00014170","PERIOD":"95.592","TLE_LINE2":"2 48113  53.0564  40.8540 0001417  84.7191 275.3960 15.06396538 83409","OBJECT_ID":"2021-027X","REF_FRAME":"TEME","SITE":"AFETR","TIME_SYSTEM":"UTC","LAUNCH_DATE":"2021-04-07","DECAY_DATE":null,"MEAN_MOTION_DDOT":"0.0000000000000","SEMIMAJOR_AXIS":"6925.359","MEAN_ELEMENT_THEORY":"SGP4","NORAD_CAT_ID":"48113","OBJECT_TYPE":"PAYLOAD","COUNTRY_CODE":"US","RA_OF_ASC_NODE":"40.8540","OBJECT_NAME":"STARLINK-2450","APOAPSIS":"548.205","RCS_SIZE":"LARGE"},{"MEAN_ANOMALY":"278.1389","CENTER_NAME":"EARTH","PERIAPSIS":"546.218","REV_AT_EPOCH":"8350","GP_ID":"214047985","INCLINATION":"53.0545","MEAN_MOTION":"15.06397993","CLASSIFICATION_TYPE":"U","MEAN_MOTION_DOT":"0.00003071","ECCENTRICITY":"0.00014470","BSTAR":"0.00022499000000","EPHEMERIS_TYPE":"0","ELEMENT_SET_NO":"999","EPOCH":"2022-10-02T19:50:26.771136","FILE":"3589751","ARG_OF_PERICENTER":"81.9764","TLE_LINE1":"1 48114U 21027Y   22275.82669874  .00003071  00000-0  22499-3 0  9998","TIME_SYSTEM":"UTC","LAUNCH_DATE":"2021-04-07","DECAY_DATE":null,"MEAN_MOTION_DDOT":"0.0000000000000","SEMIMAJOR_AXIS":"6925.355","MEAN_ELEMENT_THEORY":"SGP4","PERIOD":"95.592","TLE_LINE2":"2 48114  53.0545  35.4264 0001447  81.9764 278.1389 15.06397993 83503","OBJECT_ID":"2021-027Y","REF_FRAME":"TEME","SITE":"AFETR","COUNTRY_CODE":"US","OBJECT_NAME":"STARLINK-2451","RA_OF_ASC_NODE":"35.4264","APOAPSIS":"548.222","RCS_SIZE":"LARGE","NORAD_CAT_ID":"48114","OBJECT_TYPE":"PAYLOAD"},{"ECCENTRICITY":"0.00016400","CLASSIFICATION_TYPE":"U","MEAN_MOTION_DOT":"0.00005021","MEAN_MOTION":"15.06400825","INCLINATION":"53.0550","TLE_LINE1":"1 48115U 21027Z   22275.72211893  .00005021  00000-0  35573-3 0  9996","ARG_OF_PERICENTER":"70.9348","FILE":"3589751","EPHEMERIS_TYPE":"0","ELEMENT_SET_NO":"999","EPOCH":"2022-10-02T17:19:51.075552","BSTAR":"0.00035573000000","REV_AT_EPOCH":"8355","PERIAPSIS":"546.075","CENTER_NAME":"EARTH","MEAN_ANOMALY":"289.1818","GP_ID":"214048234","RCS_SIZE":"LARGE","APOAPSIS":"548.347","OBJECT_NAME":"STARLINK-2452","RA_OF_ASC_NODE":"30.9043","COUNTRY_CODE":"US","OBJECT_TYPE":"PAYLOAD","NORAD_CAT_ID":"48115","SEMIMAJOR_AXIS":"6925.346","MEAN_ELEMENT_THEORY":"SGP4","MEAN_MOTION_DDOT":"0.0000000000000","DECAY_DATE":null,"LAUNCH_DATE":"2021-04-07","TIME_SYSTEM":"UTC","SITE":"AFETR","REF_FRAME":"TEME","OBJECT_ID":"2021-027Z","TLE_LINE2":"2 48115  53.0550  30.9043 0001640  70.9348 289.1818 15.06400825 83559","PERIOD":"95.592"},{"FILE":"3589751","ARG_OF_PERICENTER":"68.8141","TLE_LINE1":"1 48116U 21027AA  22275.72951528 -.00001114  00000-0 -55911-4 0  9993","BSTAR":"-0.00005591100000","ELEMENT_SET_NO":"999","EPOCH":"2022-10-02T17:30:30.120192","EPHEMERIS_TYPE":"0","ECCENTRICITY":"0.00014140","MEAN_MOTION":"15.06390891","INCLINATION":"53.0563","MEAN_MOTION_DOT":"-0.00001114","CLASSIFICATION_TYPE":"U","GP_ID":"214048482","PERIAPSIS":"546.262","REV_AT_EPOCH":"8341","MEAN_ANOMALY":"291.2999","CENTER_NAME":"EARTH","OBJECT_TYPE":"PAYLOAD","NORAD_CAT_ID":"48116","COUNTRY_CODE":"US","OBJECT_NAME":"STARLINK-2454","RA_OF_ASC_NODE":"40.8558","APOAPSIS":"548.221","RCS_SIZE":"LARGE","OBJECT_ID":"2021-027AA","REF_FRAME":"TEME","SITE":"AFETR","PERIOD":"95.593","TLE_LINE2":"2 48116  53.0563  40.8558 0001414  68.8141 291.2999 15.06390891 83411","DECAY_DATE":null,"MEAN_MOTION_DDOT":"0.0000000000000","MEAN_ELEMENT_THEORY":"SGP4","SEMIMAJOR_AXIS":"6925.376","TIME_SYSTEM":"UTC","LAUNCH_DATE":"2021-04-07"},{"MEAN_ELEMENT_THEORY":"SGP4","SEMIMAJOR_AXIS":"6925.344","DECAY_DATE":null,"MEAN_MOTION_DDOT":"0.0000000000000","LAUNCH_DATE":"2021-04-07","TIME_SYSTEM":"UTC","REF_FRAME":"TEME","SITE":"AFETR","OBJECT_ID":"2021-027AB","TLE_LINE2":"2 48117  53.0551  20.9942 0001506  68.8650 291.2500 15.06401558 83693","PERIOD":"95.592","APOAPSIS":"548.252","RCS_SIZE":"LARGE","COUNTRY_CODE":"US","RA_OF_ASC_NODE":"20.9942","OBJECT_NAME":"STARLINK-2455","OBJECT_TYPE":"PAYLOAD","NORAD_CAT_ID":"48117","PERIAPSIS":"546.166","REV_AT_EPOCH":"8369","MEAN_ANOMALY":"291.2500","CENTER_NAME":"EARTH","GP_ID":"214048719","ECCENTRICITY":"0.00015060","CLASSIFICATION_TYPE":"U","MEAN_MOTION_DOT":"0.00001439","INCLINATION":"53.0551","MEAN_MOTION":"15.06401558","TLE_LINE1":"1 48117U 21027AB  22275.70092064  .00001439  00000-0  11551-3 0  9992","ARG_OF_PERICENTER":"68.8650","FILE":"3589751","ELEMENT_SET_NO":"999","EPHEMERIS_TYPE":"0","EPOCH":"2022-10-02T16:49:19.543296","BSTAR":"0.00011551000000"},{"NORAD_CAT_ID":"48118","OBJECT_TYPE":"PAYLOAD","OBJECT_NAME":"STARLINK-2458","RA_OF_ASC_NODE":"20.6491","COUNTRY_CODE":"US","RCS_SIZE":"LARGE","APOAPSIS":"548.219","PERIOD":"95.592","TLE_LINE2":"2 48118  53.0557  20.6491 0001466  66.1630 293.9512 15.06403168 83703","OBJECT_ID":"2021-027AC","SITE":"AFETR","REF_FRAME":"TEME","TIME_SYSTEM":"UTC","LAUNCH_DATE":"2021-04-07","MEAN_MOTION_DDOT":"0.0000000000000","DECAY_DATE":null,"MEAN_ELEMENT_THEORY":"SGP4","SEMIMAJOR_AXIS":"6925.339","BSTAR":"0.00032488000000","EPOCH":"2022-10-02T18:42:08.201376","ELEMENT_SET_NO":"999","EPHEMERIS_TYPE":"0","FILE":"3589751","TLE_LINE1":"1 48118U 21027AC  22275.77926159  .00004561  00000-0  32488-3 0  9992","ARG_OF_PERICENTER":"66.1630","MEAN_MOTION":"15.06403168","INCLINATION":"53.0557","MEAN_MOTION_DOT":"0.00004561","CLASSIFICATION_TYPE":"U","ECCENTRICITY":"0.00014660","GP_ID":"214047486","CENTER_NAME":"EARTH","MEAN_ANOMALY":"293.9512","REV_AT_EPOCH":"8370","PERIAPSIS":"546.189"},{"MEAN_ANOMALY":"308.1628","CENTER_NAME":"EARTH","PERIAPSIS":"546.097","REV_AT_EPOCH":"8369","GP_ID":"214047735","INCLINATION":"53.0550","MEAN_MOTION":"15.06396050","MEAN_MOTION_DOT":"0.00022159","CLASSIFICATION_TYPE":"U","ECCENTRICITY":"0.00016300","BSTAR":"0.00150200000000","EPHEMERIS_TYPE":"0","ELEMENT_SET_NO":"999","EPOCH":"2022-10-02T18:35:28.273056","FILE":"3589751","TLE_LINE1":"1 48119U 21027AD  22275.77463279  .00022159  00000-0  15020-2 0  9997","ARG_OF_PERICENTER":"51.9508","TIME_SYSTEM":"UTC","LAUNCH_DATE":"2021-04-07","DECAY_DATE":null,"MEAN_MOTION_DDOT":"0.0000000000000","MEAN_ELEMENT_THEORY":"SGP4","SEMIMAJOR_AXIS":"6925.361","PERIOD":"95.592","TLE_LINE2":"2 48119  53.0550  20.6664 0001630  51.9508 308.1628 15.06396050 83694","OBJECT_ID":"2021-027AD","REF_FRAME":"TEME","SITE":"AFETR","COUNTRY_CODE":"US","RA_OF_ASC_NODE":"20.6664","OBJECT_NAME":"STARLINK-2459","APOAPSIS":"548.354","RCS_SIZE":"LARGE","NORAD_CAT_ID":"48119","OBJECT_TYPE":"PAYLOAD"},{"TLE_LINE2":"2 48120  53.0563  40.6408 0001461  73.1678 286.9471 15.06390756 83432","PERIOD":"95.593","SITE":"AFETR","REF_FRAME":"TEME","OBJECT_ID":"2021-027AE","LAUNCH_DATE":"2021-04-07","TIME_SYSTEM":"UTC","SEMIMAJOR_AXIS":"6925.377","MEAN_ELEMENT_THEORY":"SGP4","MEAN_MOTION_DDOT":"0.0000000000000","DECAY_DATE":null,"NORAD_CAT_ID":"48120","OBJECT_TYPE":"PAYLOAD","RCS_SIZE":"LARGE","APOAPSIS":"548.254","RA_OF_ASC_NODE":"40.6408","OBJECT_NAME":"STARLINK-2460","COUNTRY_CODE":"US","GP_ID":"214048982","CENTER_NAME":"EARTH","MEAN_ANOMALY":"286.9471","REV_AT_EPOCH":"8343","PERIAPSIS":"546.230","ELEMENT_SET_NO":"999","EPOCH":"2022-10-02T18:44:48.828480","EPHEMERIS_TYPE":"0","BSTAR":"-0.00008775100000","TLE_LINE1":"1 48120U 21027AE  22275.78112070 -.00001588  00000-0 -87751-4 0  9997","ARG_OF_PERICENTER":"73.1678","FILE":"3589751","CLASSIFICATION_TYPE":"U","MEAN_MOTION_DOT":"-0.00001588","MEAN_MOTION":"15.06390756","INCLINATION":"53.0563","ECCENTRICITY":"0.00014610"},{"NORAD_CAT_ID":"48121","OBJECT_TYPE":"PAYLOAD","RCS_SIZE":"LARGE","APOAPSIS":"548.080","RA_OF_ASC_NODE":"31.6577","OBJECT_NAME":"STARLINK-2462","COUNTRY_CODE":"US","TLE_LINE2":"2 48121  53.0575  31.6577 0001229  81.9088 278.2040 15.06394895 83521","PERIOD":"95.592","SITE":"AFETR","REF_FRAME":"TEME","OBJECT_ID":"2021-027AF","LAUNCH_DATE":"2021-04-07","TIME_SYSTEM":"UTC","MEAN_ELEMENT_THEORY":"SGP4","SEMIMAJOR_AXIS":"6925.364","MEAN_MOTION_DDOT":"0.0000000000000","DECAY_DATE":null,"ELEMENT_SET_NO":"999","EPOCH":"2022-10-02T13:17:03.090336","EPHEMERIS_TYPE":"0","BSTAR":"-0.00008375900000","TLE_LINE1":"1 48121U 21027AF  22275.55350799 -.00001529  00000-0 -83759-4 0  9994","ARG_OF_PERICENTER":"81.9088","FILE":"3589751","MEAN_MOTION_DOT":"-0.00001529","CLASSIFICATION_TYPE":"U","INCLINATION":"53.0575","MEAN_MOTION":"15.06394895","ECCENTRICITY":"0.00012290","GP_ID":"214049219","CENTER_NAME":"EARTH","MEAN_ANOMALY":"278.2040","REV_AT_EPOCH":"8352","PERIAPSIS":"546.378"}];
